STARLINK-36901          
1 67974U 26038P   26064.16668981 -.01526252  74313-3 -25392-2 0  9994
2 67974  97.2747  74.0945 0001075  52.3505 338.0899 16.03092194  2471
STARLINK-36883          
1 67975U 26038Q   26064.16668981 -.01492995  71859-3 -23935-2 0  9994
2 67975  97.2740  74.0999 0001103  55.3492 347.3135 16.03715844  2474
STARLINK-36880          
1 67976U 26038R   26064.16668981 -.01517250  73729-3 -24853-2 0  9995
2 67976  97.2744  74.0967 0001078  60.4231 334.9633 16.03354903  2473
STARLINK-36904          
1 67977U 26038S   26064.16668981 -.01512760  73547-3 -24407-2 0  9990
2 67977  97.2740  74.0984 0001187  56.6960 343.5119 16.03610763  2470
STARLINK-36364          
1 67978U 26038T   26064.16668981 -.01495788  72367-3 -23558-2 0  9996
2 67978  97.2735  74.1021 0000882  85.2882 323.0591 16.04015039  2473
STARLINK-36359          
1 67979U 26038U   26064.16668981 -.01514716  73591-3 -24660-2 0  9995
2 67979  97.2742  74.0970 0000872  75.3117 322.1310 16.03459098  2479
STARLINK-36882          
1 67980U 26038V   26064.16668981 -.01492237  71947-3 -23666-2 0  9998
2 67980  97.2737  74.1008 0001113  53.0295 352.5712 16.03897672  2474
STARLINK-36874          
1 67981U 26038W   26064.16668981 -.01501911  73041-3 -23463-2 0  9991
2 67981  97.2737  74.1030 0001142  49.3850   0.9122 16.04152135  2475
STARLINK-36879          
1 67982U 26038X   26064.16668981 -.01519999  74813-3 -23552-2 0  9994
2 67982  97.2734  74.1040 0001031  56.0009 356.7162 16.04291916  2479
STARLINK-36867          
1 67983U 26038Y   26064.16668981 -.01505615  73736-3 -22959-2 0  9998
2 67983  97.2732  74.1064 0001189  50.1341   7.4920 16.04556600  2478
STARLINK-36266          
1 67984U 26038Z   26064.16668981 -.01511223  74143-3 -23208-2 0  9992
2 67984  97.2734  74.1053 0001118  49.6966   5.7047 16.04439811  2449
STARLINK-36802          
1 67985U 26038AA  26064.16668981 -.01482950  71767-3 -22479-2 0  9995
2 67985  97.2731  74.1070 0001093  56.3210   3.3483 16.04653190  2474
STARLINK-36535          
1 67986U 26039A   26064.16668981 -.01543063  70645-3 -33478-2 0  9995
2 67986  42.9980  83.0163 0001699 268.7184 123.2801 15.97507343  2151
STARLINK-36744          
1 67987U 26039B   26064.16668981 -.01509106  67882-3 -32550-2 0  9995
2 67987  42.9978  83.0126 0001812 265.9018 127.4367 15.97606819  2151
STARLINK-36734          
1 67988U 26039C   26064.16668981 -.01525682  69373-3 -32628-2 0  9996
2 67988  42.9979  83.0084 0001826 268.9863 125.9773 15.97762566  2158
STARLINK-36957          
1 67989U 26039D   26064.16668981 -.01515836  68639-3 -32194-2 0  9999
2 67989  42.9976  83.0048 0001734 270.3196 125.9316 15.97885446  2156
