[{"OBJECT_NAME":"STARLINK-36901","OBJECT_ID":"2026-038P","EPOCH":"2026-03-05T04:00:01.999584","MEAN_MOTION":16.03092194,"ECCENTRICITY":0.0001075,"INCLINATION":97.2747,"RA_OF_ASC_NODE":74.0945,"ARG_OF_PERICENTER":52.3505,"MEAN_ANOMALY":338.0899,"EPHEMERIS_TYPE":0,"CLASSIFICATION_TYPE":"U","NORAD_CAT_ID":67974,"ELEMENT_SET_NO":999,"REV_AT_EPOCH":247,"BSTAR":-0.0025392,"MEAN_MOTION_DOT":-0.01526252,"MEAN_MOTION_DDOT":0.00074313},{"OBJECT_NAME":"STARLINK-36883","OBJECT_ID":"2026-038Q","EPOCH":"2026-03-05T04:00:01.999584","MEAN_MOTION":16.03715844,"ECCENTRICITY":0.0001103,"INCLINATION":97.274,"RA_OF_ASC_NODE":74.0999,"ARG_OF_PERICENTER":55.3492,"MEAN_ANOMALY":347.3135,"EPHEMERIS_TYPE":0,"CLASSIFICATION_TYPE":"U","NORAD_CAT_ID":67975,"ELEMENT_SET_NO":999,"REV_AT_EPOCH":247,"BSTAR":-0.0023935,"MEAN_MOTION_DOT":-0.01492995,"MEAN_MOTION_DDOT":0.00071859},{"OBJECT_NAME":"STARLINK-36880","OBJECT_ID":"2026-038R","EPOCH":"2026-03-05T04:00:01.999584","MEAN_MOTION":16.03354903,"ECCENTRICITY":0.0001078,"INCLINATION":97.2744,"RA_OF_ASC_NODE":74.0967,"ARG_OF_PERICENTER":60.4231,"MEAN_ANOMALY":334.9633,"EPHEMERIS_TYPE":0,"CLASSIFICATION_TYPE":"U","NORAD_CAT_ID":67976,"ELEMENT_SET_NO":999,"REV_AT_EPOCH":247,"BSTAR":-0.0024853,"MEAN_MOTION_DOT":-0.0151725,"MEAN_MOTION_DDOT":0.00073729},{"OBJECT_NAME":"STARLINK-36904","OBJECT_ID":"2026-038S","EPOCH":"2026-03-05T04:00:01.999584","MEAN_MOTION":16.03610763,"ECCENTRICITY":0.0001187,"INCLINATION":97.274,"RA_OF_ASC_NODE":74.0984,"ARG_OF_PERICENTER":56.696,"MEAN_ANOMALY":343.5119,"EPHEMERIS_TYPE":0,"CLASSIFICATION_TYPE":"U","NORAD_CAT_ID":67977,"ELEMENT_SET_NO":999,"REV_AT_EPOCH":247,"BSTAR":-0.0024407,"MEAN_MOTION_DOT":-0.0151276,"MEAN_MOTION_DDOT":0.00073547},{"OBJECT_NAME":"STARLINK-36364","OBJECT_ID":"2026-038T","EPOCH":"2026-03-05T04:00:01.999584","MEAN_MOTION":16.04015039,"ECCENTRICITY":8.82e-5,"INCLINATION":97.2735,"RA_OF_ASC_NODE":74.1021,"ARG_OF_PERICENTER":85.2882,"MEAN_ANOMALY":323.0591,"EPHEMERIS_TYPE":0,"CLASSIFICATION_TYPE":"U","NORAD_CAT_ID":67978,"ELEMENT_SET_NO":999,"REV_AT_EPOCH":247,"BSTAR":-0.0023558,"MEAN_MOTION_DOT":-0.01495788,"MEAN_MOTION_DDOT":0.00072367},{"OBJECT_NAME":"STARLINK-36359","OBJECT_ID":"2026-038U","EPOCH":"2026-03-05T04:00:01.999584","MEAN_MOTION":16.03459098,"ECCENTRICITY":8.72e-5,"INCLINATION":97.2742,"RA_OF_ASC_NODE":74.097,"ARG_OF_PERICENTER":75.3117,"MEAN_ANOMALY":322.131,"EPHEMERIS_TYPE":0,"CLASSIFICATION_TYPE":"U","NORAD_CAT_ID":67979,"ELEMENT_SET_NO":999,"REV_AT_EPOCH":247,"BSTAR":-0.002466,"MEAN_MOTION_DOT":-0.01514716,"MEAN_MOTION_DDOT":0.00073591},{"OBJECT_NAME":"STARLINK-36882","OBJECT_ID":"2026-038V","EPOCH":"2026-03-05T04:00:01.999584","MEAN_MOTION":16.03897672,"ECCENTRICITY":0.0001113,"INCLINATION":97.2737,"RA_OF_ASC_NODE":74.1008,"ARG_OF_PERICENTER":53.0295,"MEAN_ANOMALY":352.5712,"EPHEMERIS_TYPE":0,"CLASSIFICATION_TYPE":"U","NORAD_CAT_ID":67980,"ELEMENT_SET_NO":999,"REV_AT_EPOCH":247,"BSTAR":-0.0023666,"MEAN_MOTION_DOT":-0.01492237,"MEAN_MOTION_DDOT":0.00071947},{"OBJECT_NAME":"STARLINK-36874","OBJECT_ID":"2026-038W","EPOCH":"2026-03-05T04:00:01.999584","MEAN_MOTION":16.04152135,"ECCENTRICITY":0.0001142,"INCLINATION":97.2737,"RA_OF_ASC_NODE":74.103,"ARG_OF_PERICENTER":49.385,"MEAN_ANOMALY":0.9122,"EPHEMERIS_TYPE":0,"CLASSIFICATION_TYPE":"U","NORAD_CAT_ID":67981,"ELEMENT_SET_NO":999,"REV_AT_EPOCH":247,"BSTAR":-0.0023463,"MEAN_MOTION_DOT":-0.01501911,"MEAN_MOTION_DDOT":0.00073041},{"OBJECT_NAME":"STARLINK-36879","OBJECT_ID":"2026-038X","EPOCH":"2026-03-05T04:00:01.999584","MEAN_MOTION":16.04291916,"ECCENTRICITY":0.0001031,"INCLINATION":97.2734,"RA_OF_ASC_NODE":74.104,"ARG_OF_PERICENTER":56.0009,"MEAN_ANOMALY":356.7162,"EPHEMERIS_TYPE":0,"CLASSIFICATION_TYPE":"U","NORAD_CAT_ID":67982,"ELEMENT_SET_NO":999,"REV_AT_EPOCH":247,"BSTAR":-0.0023552,"MEAN_MOTION_DOT":-0.01519999,"MEAN_MOTION_DDOT":0.00074813},{"OBJECT_NAME":"STARLINK-36867","OBJECT_ID":"2026-038Y","EPOCH":"2026-03-05T04:00:01.999584","MEAN_MOTION":16.045566,"ECCENTRICITY":0.0001189,"INCLINATION":97.2732,"RA_OF_ASC_NODE":74.1064,"ARG_OF_PERICENTER":50.1341,"MEAN_ANOMALY":7.492,"EPHEMERIS_TYPE":0,"CLASSIFICATION_TYPE":"U","NORAD_CAT_ID":67983,"ELEMENT_SET_NO":999,"REV_AT_EPOCH":247,"BSTAR":-0.0022959,"MEAN_MOTION_DOT":-0.01505615,"MEAN_MOTION_DDOT":0.00073736},{"OBJECT_NAME":"STARLINK-36266","OBJECT_ID":"2026-038Z","EPOCH":"2026-03-05T04:00:01.999584","MEAN_MOTION":16.04439811,"ECCENTRICITY":0.0001118,"INCLINATION":97.2734,"RA_OF_ASC_NODE":74.1053,"ARG_OF_PERICENTER":49.6966,"MEAN_ANOMALY":5.7047,"EPHEMERIS_TYPE":0,"CLASSIFICATION_TYPE":"U","NORAD_CAT_ID":67984,"ELEMENT_SET_NO":999,"REV_AT_EPOCH":244,"BSTAR":-0.0023208,"MEAN_MOTION_DOT":-0.01511223,"MEAN_MOTION_DDOT":0.00074143},{"OBJECT_NAME":"STARLINK-36802","OBJECT_ID":"2026-038AA","EPOCH":"2026-03-05T04:00:01.999584","MEAN_MOTION":16.0465319,"ECCENTRICITY":0.0001093,"INCLINATION":97.2731,"RA_OF_ASC_NODE":74.107,"ARG_OF_PERICENTER":56.321,"MEAN_ANOMALY":3.3483,"EPHEMERIS_TYPE":0,"CLASSIFICATION_TYPE":"U","NORAD_CAT_ID":67985,"ELEMENT_SET_NO":999,"REV_AT_EPOCH":247,"BSTAR":-0.0022479,"MEAN_MOTION_DOT":-0.0148295,"MEAN_MOTION_DDOT":0.00071767},{"OBJECT_NAME":"STARLINK-36535","OBJECT_ID":"2026-039A","EPOCH":"2026-03-05T04:00:01.999584","MEAN_MOTION":15.97507343,"ECCENTRICITY":0.0001699,"INCLINATION":42.998,"RA_OF_ASC_NODE":83.0163,"ARG_OF_PERICENTER":268.7184,"MEAN_ANOMALY":123.2801,"EPHEMERIS_TYPE":0,"CLASSIFICATION_TYPE":"U","NORAD_CAT_ID":67986,"ELEMENT_SET_NO":999,"REV_AT_EPOCH":215,"BSTAR":-0.0033478,"MEAN_MOTION_DOT":-0.01543063,"MEAN_MOTION_DDOT":0.00070645},{"OBJECT_NAME":"STARLINK-36744","OBJECT_ID":"2026-039B","EPOCH":"2026-03-05T04:00:01.999584","MEAN_MOTION":15.97606819,"ECCENTRICITY":0.0001812,"INCLINATION":42.9978,"RA_OF_ASC_NODE":83.0126,"ARG_OF_PERICENTER":265.9018,"MEAN_ANOMALY":127.4367,"EPHEMERIS_TYPE":0,"CLASSIFICATION_TYPE":"U","NORAD_CAT_ID":67987,"ELEMENT_SET_NO":999,"REV_AT_EPOCH":215,"BSTAR":-0.003255,"MEAN_MOTION_DOT":-0.01509106,"MEAN_MOTION_DDOT":0.00067882},{"OBJECT_NAME":"STARLINK-36734","OBJECT_ID":"2026-039C","EPOCH":"2026-03-05T04:00:01.999584","MEAN_MOTION":15.97762566,"ECCENTRICITY":0.0001826,"INCLINATION":42.9979,"RA_OF_ASC_NODE":83.0084,"ARG_OF_PERICENTER":268.9863,"MEAN_ANOMALY":125.9773,"EPHEMERIS_TYPE":0,"CLASSIFICATION_TYPE":"U","NORAD_CAT_ID":67988,"ELEMENT_SET_NO":999,"REV_AT_EPOCH":215,"BSTAR":-0.0032628,"MEAN_MOTION_DOT":-0.01525682,"MEAN_MOTION_DDOT":0.00069373},{"OBJECT_NAME":"STARLINK-36957","OBJECT_ID":"2026-039D","EPOCH":"2026-03-05T04:00:01.999584","MEAN_MOTION":15.97885446,"ECCENTRICITY":0.0001734,"INCLINATION":42.9976,"RA_OF_ASC_NODE":83.0048,"ARG_OF_PERICENTER":270.3196,"MEAN_ANOMALY":125.9316,"EPHEMERIS_TYPE":0,"CLASSIFICATION_TYPE":"U","NORAD_CAT_ID":67989,"ELEMENT_SET_NO":999,"REV_AT_EPOCH":215,"BSTAR":-0.0032194,"MEAN_MOTION_DOT":-0.01515836,"MEAN_MOTION_DDOT":0.00068639}]
